{"type": "FeatureCollection", "features": [ {"type": "Feature", "properties": {"norad_id": 37834, "name": "INTELSAT 18 (IS-18)", "group": "intelsat", "lat": 0.01673310455573933, "lon": 128.98518348588644, "alt_km": 35792.17140690533, "timestamp": "2025-12-15T14:57:57.507772+00:00", "meta": {"OBJECT_NAME": "INTELSAT 18 (IS-18)", "OBJECT_ID": "2011-056A", "EPOCH": "2025-12-14T19:24:41.762880", "MEAN_MOTION": 1.00271539, "ECCENTRICITY": 0.00017512, "INCLINATION": 0.0192, "RA_OF_ASC_NODE": 331.581, "ARG_OF_PERICENTER": 302.7174, "MEAN_ANOMALY": 280.591, "EPHEMERIS_TYPE": 0, "CLASSIFICATION_TYPE": "U", "NORAD_CAT_ID": 37834, "ELEMENT_SET_NO": 999, "REV_AT_EPOCH": 5196, "BSTAR": 0, "MEAN_MOTION_DOT": 7.2e-07, "MEAN_MOTION_DDOT": 0}, "tle": {"line1": "1 37834U 11056A   25348.80881670  .00000072  00000+0  00000+0 0  9995", "line2": "2 37834   0.0192 331.5810 0001751 302.7174 280.5910  1.00271539 51962"}}, "geometry": {"type": "Point", "coordinates": [128.98518348588644, 0.01673310455573933]}}, {"type": "Feature", "properties": {"norad_id": 38098, "name": "INTELSAT 22 (IS-22)", "group": "intelsat", "lat": -0.0016253599771916798, "lon": 21.119659995971123, "alt_km": 35787.43398681726, "timestamp": "2025-12-15T14:57:57.507783+00:00", "meta": {"OBJECT_NAME": "INTELSAT 22 (IS-22)", "OBJECT_ID": "2012-011A", "EPOCH": "2025-12-14T22:19:17.539968", "MEAN_MOTION": 1.00270521, "ECCENTRICITY": 0.00017928, "INCLINATION": 0.0353, "RA_OF_ASC_NODE": 46.3918, "ARG_OF_PERICENTER": 237.2822, "MEAN_ANOMALY": 207.0892, "EPHEMERIS_TYPE": 0, "CLASSIFICATION_TYPE": "U", "NORAD_CAT_ID": 38098, "ELEMENT_SET_NO": 999, "REV_AT_EPOCH": 534, "BSTAR": 0, "MEAN_MOTION_DOT": 0, "MEAN_MOTION_DDOT": 0}, "tle": {"line1": "1 38098U 12011A   25348.93006412  .00000000  00000+0  00000+0 0  9998", "line2": "2 38098   0.0353  46.3918 0001792 237.2822 207.0892  1.00270521  5345"}}, "geometry": {"type": "Point", "coordinates": [21.119659995971123, -0.0016253599771916798]}}, {"type": "Feature", "properties": {"norad_id": 38356, "name": "INTELSAT 19 (IS-19)", "group": "intelsat", "lat": 0.01899298136018201, "lon": 115.00322694579776, "alt_km": 35798.80196450371, "timestamp": "2025-12-15T14:57:57.507794+00:00", "meta": {"OBJECT_NAME": "INTELSAT 19 (IS-19)", "OBJECT_ID": "2012-030A", "EPOCH": "2025-12-14T21:03:24.807744", "MEAN_MOTION": 1.00271713, "ECCENTRICITY": 0.00032431, "INCLINATION": 0.0105, "RA_OF_ASC_NODE": 327.5923, "ARG_OF_PERICENTER": 305.3604, "MEAN_ANOMALY": 292.704, "EPHEMERIS_TYPE": 0, "CLASSIFICATION_TYPE": "U", "NORAD_CAT_ID": 38356, "ELEMENT_SET_NO": 999, "REV_AT_EPOCH": 4860, "BSTAR": 0, "MEAN_MOTION_DOT": -3.6e-07, "MEAN_MOTION_DDOT": 0}, "tle": {"line1": "1 38356U 12030A   25348.87737046 -.00000036  00000+0  00000+0 0  9993", "line2": "2 38356   0.0105 327.5923 0003243 305.3604 292.7040  1.00271713 48601"}}, "geometry": {"type": "Point", "coordinates": [115.00322694579776, 0.01899298136018201]}}, {"type": "Feature", "properties": {"norad_id": 38740, "name": "INTELSAT 20 (IS-20)", "group": "intelsat", "lat": 0.004444227652210888, "lon": 17.489716310251584, "alt_km": 35798.94496877044, "timestamp": "2025-12-15T14:57:57.507804+00:00", "meta": {"OBJECT_NAME": "INTELSAT 20 (IS-20)", "OBJECT_ID": "2012-043A", "EPOCH": "2025-12-14T20:35:34.973088", "MEAN_MOTION": 1.00270164, "ECCENTRICITY": 0.00030706, "INCLINATION": 0.0039, "RA_OF_ASC_NODE": 41.6169, "ARG_OF_PERICENTER": 140.4065, "MEAN_ANOMALY": 279.1424, "EPHEMERIS_TYPE": 0, "CLASSIFICATION_TYPE": "U", "NORAD_CAT_ID": 38740, "ELEMENT_SET_NO": 999, "REV_AT_EPOCH": 4890, "BSTAR": 0, "MEAN_MOTION_DOT": -4e-08, "MEAN_MOTION_DDOT": 0}, "tle": {"line1": "1 38740U 12043A   25348.85804367 -.00000004  00000+0  00000+0 0  9998", "line2": "2 38740   0.0039  41.6169 0003070 140.4065 279.1424  1.00270164 48904"}}, "geometry": {"type": "Point", "coordinates": [17.489716310251584, 0.004444227652210888]}}, {"type": "Feature", "properties": {"norad_id": 38749, "name": "INTELSAT 21 (IS-21)", "group": "intelsat", "lat": -0.01762324018052639, "lon": -108.99569156418738, "alt_km": 35779.143680662804, "timestamp": "2025-12-15T14:57:57.507815+00:00", "meta": {"OBJECT_NAME": "INTELSAT 21 (IS-21)", "OBJECT_ID": "2012-045A", "EPOCH": "2025-12-14T21:42:13.590144", "MEAN_MOTION": 1.00271705, "ECCENTRICITY": 0.00016983, "INCLINATION": 0.033, "RA_OF_ASC_NODE": 77.1326, "ARG_OF_PERICENTER": 185.5321, "MEAN_ANOMALY": 88.7131, "EPHEMERIS_TYPE": 0, "CLASSIFICATION_TYPE": "U", "NORAD_CAT_ID": 38749, "ELEMENT_SET_NO": 999, "REV_AT_EPOCH": 4867, "BSTAR": 0, "MEAN_MOTION_DOT": -2.65e-06, "MEAN_MOTION_DDOT": 0}, "tle": {"line1": "1 38749U 12045A   25348.90432396 -.00000265  00000+0  00000+0 0  9993", "line2": "2 38749   0.0330  77.1326 0001698 185.5321  88.7131  1.00271705 48670"}}, "geometry": {"type": "Point", "coordinates": [-108.99569156418738, -0.01762324018052639]}}, {"type": "Feature", "properties": {"norad_id": 38867, "name": "INTELSAT 23 (IS-23)", "group": "intelsat", "lat": -0.012100315834418084, "lon": -104.00565433235396, "alt_km": 35782.96036565453, "timestamp": "2025-12-15T14:57:57.507826+00:00", "meta": {"OBJECT_NAME": "INTELSAT 23 (IS-23)", "OBJECT_ID": "2012-057A", "EPOCH": "2025-12-14T21:43:35.958720", "MEAN_MOTION": 1.00269647, "ECCENTRICITY": 9.722e-05, "INCLINATION": 0.0455, "RA_OF_ASC_NODE": 96.647, "ARG_OF_PERICENTER": 136.8383, "MEAN_ANOMALY": 123.2238, "EPHEMERIS_TYPE": 0, "CLASSIFICATION_TYPE": "U", "NORAD_CAT_ID": 38867, "ELEMENT_SET_NO": 999, "REV_AT_EPOCH": 4810, "BSTAR": 0, "MEAN_MOTION_DOT": -2.65e-06, "MEAN_MOTION_DDOT": 0}, "tle": {"line1": "1 38867U 12057A   25348.90527730 -.00000265  00000+0  00000+0 0  9994", "line2": "2 38867   0.0455  96.6470 0000972 136.8383 123.2238  1.00269647 48109"}}, "geometry": {"type": "Point", "coordinates": [-104.00565433235396, -0.012100315834418084]}}, {"type": "Feature", "properties": {"norad_id": 39360, "name": "FM-6", "group": "intelsat", "lat": -0.002442415673249379, "lon": -167.13554457640254, "alt_km": 35773.87544824994, "timestamp": "2025-12-15T14:57:57.507836+00:00", "meta": {"OBJECT_NAME": "FM-6", "OBJECT_ID": "2013-058A", "EPOCH": "2025-12-14T21:25:37.680672", "MEAN_MOTION": 1.00269836, "ECCENTRICITY": 0.00031328, "INCLINATION": 0.0079, "RA_OF_ASC_NODE": 55.0076, "ARG_OF_PERICENTER": 123.1804, "MEAN_ANOMALY": 110.8805, "EPHEMERIS_TYPE": 0, "CLASSIFICATION_TYPE": "U", "NORAD_CAT_ID": 39360, "ELEMENT_SET_NO": 999, "REV_AT_EPOCH": 4422, "BSTAR": 0, "MEAN_MOTION_DOT": 3e-08, "MEAN_MOTION_DDOT": 0}, "tle": {"line1": "1 39360U 13058A   25348.89279723  .00000003  00000+0  00000+0 0  9998", "line2": "2 39360   0.0079  55.0076 0003132 123.1804 110.8805  1.00269836 44220"}}, "geometry": {"type": "Point", "coordinates": [-167.13554457640254, -0.002442415673249379]}}, {"type": "Feature", "properties": {"norad_id": 40271, "name": "INTELSAT 30 (IS-30)", "group": "intelsat", "lat": -0.016738475772674836, "lon": -146.03611802469996, "alt_km": 35789.67509970668, "timestamp": "2025-12-15T14:57:57.507847+00:00", "meta": {"OBJECT_NAME": "INTELSAT 30 (IS-30)", "OBJECT_ID": "2014-062A", "EPOCH": "2025-12-14T21:31:37.107264", "MEAN_MOTION": 1.00271476, "ECCENTRICITY": 0.00014574, "INCLINATION": 0.014, "RA_OF_ASC_NODE": 20.6282, "ARG_OF_PERICENTER": 69.1308, "MEAN_ANOMALY": 221.9017, "EPHEMERIS_TYPE": 0, "CLASSIFICATION_TYPE": "U", "NORAD_CAT_ID": 40271, "ELEMENT_SET_NO": 999, "REV_AT_EPOCH": 494, "BSTAR": 0, "MEAN_MOTION_DOT": -1.31e-06, "MEAN_MOTION_DDOT": 0}, "tle": {"line1": "1 40271U 14062A   25348.89695726 -.00000131  00000+0  00000+0 0  9995", "line2": "2 40271   0.0140  20.6282 0001457  69.1308 221.9017  1.00271476  4942"}}, "geometry": {"type": "Point", "coordinates": [-146.03611802469996, -0.016738475772674836]}}, {"type": "Feature", "properties": {"norad_id": 40333, "name": "DIRECTV 14", "group": "intelsat", "lat": -0.016899679232349873, "lon": -150.22941589222478, "alt_km": 35786.55109871885, "timestamp": "2025-12-15T14:57:57.507858+00:00", "meta": {"OBJECT_NAME": "DIRECTV 14", "OBJECT_ID": "2014-078B", "EPOCH": "2025-12-14T21:30:22.226112", "MEAN_MOTION": 1.00270238, "ECCENTRICITY": 2.581e-05, "INCLINATION": 0.002, "RA_OF_ASC_NODE": 354.0631, "ARG_OF_PERICENTER": 125.1484, "MEAN_ANOMALY": 187.9572, "EPHEMERIS_TYPE": 0, "CLASSIFICATION_TYPE": "U", "NORAD_CAT_ID": 40333, "ELEMENT_SET_NO": 999, "REV_AT_EPOCH": 4019, "BSTAR": 0, "MEAN_MOTION_DOT": -1.05e-06, "MEAN_MOTION_DDOT": 0}, "tle": {"line1": "1 40333U 14078B   25348.89609058 -.00000105  00000+0  00000+0 0  9995", "line2": "2 40333   0.0020 354.0631 0000258 125.1484 187.9572  1.00270238 40195"}}, "geometry": {"type": "Point", "coordinates": [-150.22941589222478, -0.016899679232349873]}}, {"type": "Feature", "properties": {"norad_id": 40663, "name": "DIRECTV 15", "group": "intelsat", "lat": 0.009610852314172, "lon": -153.86149438951327, "alt_km": 35785.78067631712, "timestamp": "2025-12-15T14:57:57.507868+00:00", "meta": {"OBJECT_NAME": "DIRECTV 15", "OBJECT_ID": "2015-026A", "EPOCH": "2025-12-14T21:29:22.322400", "MEAN_MOTION": 1.00270662, "ECCENTRICITY": 1.699e-05, "INCLINATION": 0.0386, "RA_OF_ASC_NODE": 84.4864, "ARG_OF_PERICENTER": 93.0344, "MEAN_ANOMALY": 125.7663, "EPHEMERIS_TYPE": 0, "CLASSIFICATION_TYPE": "U", "NORAD_CAT_ID": 40663, "ELEMENT_SET_NO": 999, "REV_AT_EPOCH": 3861, "BSTAR": 0, "MEAN_MOTION_DOT": -8.3e-07, "MEAN_MOTION_DDOT": 0}, "tle": {"line1": "1 40663U 15026A   25348.89539725 -.00000083  00000+0  00000+0 0  9993", "line2": "2 40663   0.0386  84.4864 0000169  93.0344 125.7663  1.00270662 38613"}}, "geometry": {"type": "Point", "coordinates": [-153.86149438951327, 0.009610852314172]}}]}